STARLINK-1980_new
1 17578C 21009AG  21326.09703464  .00008015  00000-0  53690-3 0  3264
2 17578  53.0536 223.2981 0002063  73.1704  28.1372 15.06399084    14
STARLINK-1980_old
1 27578C 21009AG  21325.10965803  .00008721  00000-0  58436-3 0  3258
2 27578  53.0540 227.7304 0002043  71.1527  72.6160 15.06386930    11
